OPS 6582 (TRANSIT 5B-5) 
1 00965U 64083D   24113.78871685  .00000138  00000+0  18034-3 0  9992
2 00965  90.0486 198.0240 0042910  56.5496  58.6246 13.56875657937096
LES-1                   
1 01002U 65008C   24113.37355780  .00000021  00000+0  16272-2 0  9993
2 01002  32.1415 106.2536 0014200 313.8432  46.0891  9.88354368138447
SOLRAD 7B               
1 01291U 65016D   24113.39820613  .00000219  00000+0  20209-3 0  9991
2 01291  70.0766 106.6527 0018498  70.3151 289.9948 13.94773338  7122
SECOR 4 (EGRS 4)        
1 01315U 65027B   24113.68493293  .00000105  00000+0  35682-3 0  9997
2 01315  90.2456 358.1042 0032909  91.3624 323.0012 12.92639889785445
TIROS 10                
1 01430U 65051A   24113.89654322  .00000776  00000+0  25150-3 0  9990
2 01430  98.4291 229.4480 0054718 278.0034  81.4948 14.40866005 82795
ALOUETTE 2              
1 01804U 65098A   24113.79590488  .00001275  00000+0  41770-3 0  9998
2 01804  79.8020 224.1207 1336100  23.4579 342.2033 12.26983953582890
OV3-3                   
1 02389U 66070A   24113.91321584  .00017513  00000+0  88652-3 0  9993
2 02389  81.3316 290.2678 1128809 356.8579   2.5830 13.18047544494352
SECOR 7 (EGRS 7)        
1 02411U 66077B   24113.37656401 -.00000014  00000+0 -77628-2 0  9995
2 02411  90.3223 268.2842 0015399 130.4366 229.7831  8.59615959809850
ERS 15                  
1 02412U 66077C   24113.35060906  .00000002  00000+0  00000+0 0  9995
2 02412  90.3230 268.0835 0009277 135.9586 224.2005  8.59076973322974
ISIS 1                  
1 03669U 69009A   24113.82198274  .00000353  00000+0  24179-3 0  9996
2 03669  88.4367 230.2882 1709943  33.4403 336.3689 11.29901141271059
SECOR 13 (EGRS 13)      
1 03891U 69037B   24113.71144396  .00000019  00000+0  10871-3 0  9991
2 03891  99.7609   3.8519 0039788  17.6573  50.4168 13.42923631696327
ATS 5                   
1 04068U 69069A   24113.72332062 -.00000042  00000+0  00000+0 0  9999
2 04068   1.9746 269.5184 0003213   0.0095  27.7317  0.99495893 38515
OPS 7613 (P/L 4)        
1 04237U 69082E   24113.95400638  .00000205  00000+0  18872-3 0  9992
2 04237  70.0165 341.0560 0017941  72.1445  22.9347 13.95747498776724
OPS 7613 (P/L 1)        
1 04256U 69082B   24113.69349584  .00000438  00000+0  34111-3 0  9998
2 04256  70.0103 211.9333 0018749   5.8011 354.3310 13.98752452780602
SHINSEI (MS-F2)         
1 05485U 71080A   24113.78419764  .00000113  00000+0  16303-3 0  9995
2 05485  32.0591 261.4440 0640529 246.1844 107.0336 12.74193425449038
PROSPERO (BLACK ARROW)  
1 05580U 71093A   24113.79867264  .00002654  00000+0  58977-3 0  9993
2 05580  82.0387 258.3653 0516240 313.7547  42.1955 13.97556679638638
OPS 7898 (P/L 2)        
1 05680U 71110C   24113.63974113  .00000088  00000+0  14521-3 0  9995
2 05680  69.9897 183.9150 0005280  68.5773 291.5884 13.74632298240252
NOAA 2 (ITOS-D)         
1 06235U 72082A   24113.92173582 -.00000012  00000+0  21531-3 0  9991
2 06235 102.0156 112.2584 0003739 222.4832 207.0803 12.53178253356585
OSCAR 7 (AO-7)          
1 07530U 74089B   24113.92523730 -.00000023  00000+0  14911-3 0  9999
2 07530 101.9778 108.0582 0012167 188.0838 227.3803 12.53674595262111
TIROS N                 
1 11060U 78096A   24113.70782344  .00000628  00000+0  32238-3 0  9990
2 11060  98.5380 156.1599 0010401   3.1419 356.9821 14.18779248567343
PHASE 3B (AO-10)        
1 14129U 83058B   24108.67536473 -.00000617  00000+0  00000+0 0  9990
2 14129  27.4589 348.6680 6034501 261.3307  30.0706  2.05870821279210
HILAT                   
1 14154U 83063A   24113.71329133  .00001372  00000+0  44959-3 0  9991
2 14154  82.0257 170.7354 0041047 147.8421 337.0235 14.37421267134683
UOSAT 2 (UO-11)         
1 14781U 84021B   24113.89590310  .00004052  00000+0  46465-3 0  9990
2 14781  97.7006  84.8536 0006423 256.2640 103.7861 14.86418081161270
NOAA 9                  
1 15427U 84123A   24113.93945934  .00000575  00000+0  31160-3 0  9994
2 15427  99.1179 110.0250 0015649  55.2039   7.9844 14.16559105 32223
GEOSAT                  
1 15595U 85021A   24113.92445011  .00001235  00000+0  44356-3 0  9993
2 15595 108.0562 247.5205 0002188 276.2976  83.7916 14.38941272 49763
EUTELSAT 1-F4 (ECS 4)   
1 18351U 87078B   24112.79883931 -.00000149  00000+0  00000+0 0  9999
2 18351  14.3919 347.7035 0011122  37.2893 227.6961  0.98688658118994
AKEBONO (EXOS-D)        
1 19822U 89016A   24113.95299079  .00265400  10324-4  18014-2 0  9994
2 19822  74.9357 306.5741 0786920 353.6204   5.5354 14.27637560218486
PACSAT (AO-16)          
1 20439U 90005D   24113.56986087  .00000730  00000+0  28167-3 0  9998
2 20439  98.9011 117.1366 0010981  20.9199  95.2753 14.33337584789367
LUSAT (LO-19)           
1 20442U 90005G   24113.94399305  .00000743  00000+0  28541-3 0  9995
2 20442  98.8811 102.7664 0011552 353.4856   6.6175 14.33497799789862
IRS-1B                  
1 21688U 91061A   24113.94279038  .00000445  00000+0  34825-3 0  9992
2 21688  99.3614  93.0008 0024026 340.6537  79.0405 13.97601427558790
COSMOS 2197             
1 22034U 92042A   24113.77710828  .00000060  00000+0  27099-3 0  9994
2 22034  82.5995  10.8084 0011410 261.8491 164.8646 12.64212362466044
PEGASUS R/B             
1 22491U 93009C   24113.92493167  .00002863  00000+0  59521-3 0  9994
2 22491  24.9796 343.1455 0045817 291.4966  68.0664 14.55273377654991
EYESAT A (AO-27)        
1 22825U 93061C   24113.72081626  .00000498  00000+0  20860-3 0  9990
2 22825  98.7939 165.9038 0007487 236.6353 123.4112 14.30464816594685
ITAMSAT (IO-26)         
1 22826U 93061D   24113.71410886  .00000508  00000+0  21118-3 0  9993
2 22826  98.7886 165.7598 0008228 220.5047 139.5523 14.30842704594963
RADIO ROSTO (RS-15)     
1 23439U 94085A   24113.86010158 -.00000015  00000+0  77118-3 0  9990
2 23439  64.8131 133.2438 0151579 154.2947 206.5610 11.27576524207357
JAS-2 (FO-29)           
1 24278U 96046B   24113.81279577  .00000099  00000+0  13911-3 0  9990
2 24278  98.5770  55.7313 0349654 331.8585  26.4038 13.53183564366949
FORTE                   
1 24920U 97047A   24113.93846339  .00000838  00000+0  36622-3 0  9990
2 24920  69.9554 346.6874 0025176 267.7848  92.0391 14.27086570386616
NOAA 15                 
1 25338U 98030A   24113.96811487  .00000683  00000+0  30091-3 0  9998
2 25338  98.5737 142.2368 0011435 123.5174 236.7100 14.26545177349316
TECHSAT 1B (GO-32)      
1 25397U 98043D   24113.87075988  .00000428  00000+0  20646-3 0  9997
2 25397  98.9174  79.7831 0001079  13.6551 346.4656 14.24023015339549
ISS (ZARYA)             
1 25544U 98067A   24114.10387731  .00034668  00000+0  59775-3 0  9994
2 25544  51.6413 228.5336 0004775  87.7280 265.0973 15.50694515449994
ORSTED                  
1 25635U 99008B   24113.76950044  .00002771  00000+0  64619-3 0  9998
2 25635  96.4729 191.4111 0135556 183.1297 176.9069 14.49784699328073
LANDSAT 7               
1 25682U 99020A   24113.94868354  .00001515  00000+0  32068-3 0  9994
2 25682  97.8929 143.3349 0001688 104.6981  12.6694 14.60579808331078
ORBCOMM FM36            
1 25984U 99065E   24113.47969893  .00004742  00000+0  16823-2 0  9991
2 25984  45.0389 280.5675 0002775 334.3513  25.7196 14.35466229273919
DMSP 5D-3 F15 (USA 147) 
1 25991U 99067A   24113.93738524  .00000673  00000+0  35797-3 0  9998
2 25991  99.0684 128.3001 0011031  75.0463  41.2179 14.16967667259418
OPAL (OO-38)            
1 26063U 00004C   24113.88770703  .00000885  00000+0  31390-3 0  9991
2 26063 100.2050 253.7079 0036851  92.9956 267.5442 14.37294765270448
IMAGE                   
1 26113U 00017A   24113.05130981  .00000381  00000+0  56680-1 0  9996
2 26113  94.3483 302.5781 7477437  22.2070 357.8839  1.68652137148256
CLUSTER II-FM7 (SAMBA)  
1 26410U 00041A   24108.28159548 -.00000174  00000+0  00000+0 0  9996
2 26410 138.6604 357.0840 7330808 211.9246   0.5940  0.44216231 16787
CLUSTER II-FM6 (SALSA)  
1 26411U 00041B   24115.01537484  .00001237  00000+0  00000+0 0  9995
2 26411 147.3224  19.8015 8908339 234.6961   0.7003  0.44243908 16869
CLUSTER II-FM5 (RUMBA)  
1 26463U 00045A   24115.05647953  .00001082  00000+0  00000+0 0  9991
2 26463 149.4403  15.5333 8430756 230.8285   0.7104  0.44224216 16733
CLUSTER II-FM8 (TANGO)  
1 26464U 00045B   24115.06770547  .00000347  00000+0  00000+0 0  9992
2 26464 138.7111 357.2083 7344435 212.1128   0.6984  0.44220636 16811
MEGSAT-1                
1 26546U 00057B   24113.93123343  .00008252  00000+0  72998-3 0  9998
2 26546  64.5550  50.0268 0029612 233.3834 126.4555 14.96546677279750
PHASE 3D (AO-40)        
1 26609U 00072B   24112.24157211 -.00000360  00000+0  00000+0 0  9993
2 26609   6.0352 118.0933 7963318 281.9965   7.2913  1.25590232107620
ODIN                    
1 26702U 01007A   24113.57554019  .00023910  00000+0  10826-2 0  9995
2 26702  97.4865 129.0460 0009811 114.6311 245.5947 15.20836622268441
OMNI-M1                 
1 26857U 01026A   24112.16050802 -.00000027  00000+0  00000+0 0  9997
2 26857  44.9277  66.1919 0014534 226.3175 133.5756  3.92402599174687
PCSAT (NO-44)           
1 26931U 01043C   24113.37163632  .00000874  00000+0  36186-3 0  9996
2 26931  67.0489 115.7451 0006273 281.9501  78.0897 14.31186112177962
PROBA-1                 
1 26958U 01049B   24113.92897655  .00006273  00000+0  48457-3 0  9994
2 26958  97.9149  89.4502 0056085 249.5602 109.9593 15.00658191225541
SPOT 5                  
1 27421U 02021A   24113.76937603  .00002065  00000+0  45475-3 0  9993
2 27421  98.0928 172.0524 0132607 193.3707 166.3964 14.53166753148700
FENGYUN 1D              
1 27431U 02024B   24113.95846153  .00000317  00000+0  20562-3 0  9995
2 27431  99.0599 152.1402 0014408 289.7392  70.2223 14.09965771128817
SAUDISAT 1C (SO-50)     
1 27607U 02058C   24113.95252751  .00004334  00000+0  60319-3 0  9999
2 27607  64.5577  31.2873 0031416 139.3541 220.9916 14.78685153148159
